{
    "links": {
        "self": "http://www.neowsapp.com/rest/v1/neo/3694011?api_key=iIulBulltgU6a56xZRHN4H3l9WmuAYTsLGpBGhQ2"
    },
    "id": "3694011",
    "neo_reference_id": "3694011",
    "name": "(2014 UG8)",
    "designation": "2014 UG8",
    "nasa_jpl_url": "http://ssd.jpl.nasa.gov/sbdb.cgi?sstr=3694011",
    "absolute_magnitude_h": 26.8,
    "estimated_diameter": {
        "kilometers": {
            "estimated_diameter_min": 0.0116025908,
            "estimated_diameter_max": 0.0259441818
        },
        "meters": {
            "estimated_diameter_min": 11.6025908209,
            "estimated_diameter_max": 25.9441817907
        },
        "miles": {
            "estimated_diameter_min": 0.0072095135,
            "estimated_diameter_max": 0.0161209622
        },
        "feet": {
            "estimated_diameter_min": 38.066244069,
            "estimated_diameter_max": 85.1187093863
        }
    },
    "is_potentially_hazardous_asteroid": false,
    "close_approach_data": [
        {
            "close_approach_date": "2014-10-18",
            "close_approach_date_full": "2014-Oct-18 06:59",
            "epoch_date_close_approach": 1413615540000,
            "relative_velocity": {
                "kilometers_per_second": "10.4933483675",
                "kilometers_per_hour": "37776.0541229129",
                "miles_per_hour": "23472.5709632066"
            },
            "miss_distance": {
                "astronomical": "0.0066116235",
                "lunar": "2.5719215415",
                "kilometers": "989084.792841945",
                "miles": "614588.791411041"
            },
            "orbiting_body": "Earth"
        },
        {
            "close_approach_date": "2014-10-18",
            "close_approach_date_full": "2014-Oct-18 09:50",
            "epoch_date_close_approach": 1413625800000,
            "relative_velocity": {
                "kilometers_per_second": "11.3862113741",
                "kilometers_per_hour": "40990.3609467863",
                "miles_per_hour": "25469.8162227406"
            },
            "miss_distance": {
                "astronomical": "0.0086721315",
                "lunar": "3.3734591535",
                "kilometers": "1297332.400759905",
                "miles": "806124.973320489"
            },
            "orbiting_body": "Moon"
        }
    ],
    "orbital_data": {
        "orbit_id": "5",
        "orbit_determination_date": "2017-04-06 08:38:04",
        "first_observation_date": "2014-10-21",
        "last_observation_date": "2014-10-29",
        "data_arc_in_days": 8,
        "observations_used": 23,
        "orbit_uncertainty": "8",
        "minimum_orbit_intersection": ".00295503",
        "jupiter_tisserand_invariant": "3.244",
        "epoch_osculation": "2456956.5",
        "eccentricity": ".6009112481681428",
        "semi_major_axis": "2.406455179143425",
        "inclination": "5.654438240580788",
        "ascending_node_longitude": "201.7877861589721",
        "orbital_period": "1363.531240549069",
        "perihelion_distance": ".9603891937836577",
        "perihelion_argument": "156.5170218575844",
        "aphelion_distance": "3.852521164503192",
        "perihelion_time": "2456928.592500093407",
        "mean_anomaly": "7.368147987814239",
        "mean_motion": ".264020353398749",
        "equinox": "J2000",
        "orbit_class": {
            "orbit_class_type": "APO",
            "orbit_class_description": "Near-Earth asteroid orbits which cross the Earth’s orbit similar to that of 1862 Apollo",
            "orbit_class_range": "a (semi-major axis) > 1.0 AU; q (perihelion) < 1.017 AU"
        }
    },
    "is_sentry_object": false
}